ONEWEB-0547             
1 56049U 23043D   25300.25534048  .00000048  00000+0  84677-4 0  9994
2 56049  87.9171 290.4448 0002011  92.4333 267.7031 13.21825345127457
ONEWEB-0548             
1 56050U 23043E   25300.19425380 -.00000088  00000+0 -26315-3 0  9997
2 56050  87.8981 275.1874 0001451  86.5900 273.5397 13.16595005128307
ONEWEB-0549             
1 56051U 23043F   25300.24791292 -.00000120  00000+0 -32316-3 0  9997
2 56051  87.9168 290.4620 0002124  92.5879 267.5498 13.21825439127458
ONEWEB-0550             
1 56052U 23043G   25300.00769068  .00000070  00000+0  13710-3 0  9997
2 56052  87.9167 290.5043 0001726  87.3547 272.7785 13.21825333127426
ONEWEB-0551             
1 56053U 23043H   25300.03953009 -.00000083  00000+0 -25382-3 0  9995
2 56053  87.8961 305.7630 0001988  97.2120 262.9237 13.15549207125748
ONEWEB-0552             
1 56054U 23043J   25300.00276178  .00000073  00000+0  14595-3 0  9999
2 56054  87.9166 290.5144 0001936  97.4009 262.7345 13.21828550127422
ONEWEB-0553             
1 56055U 23043K   25300.17525650  .00000040  00000+0  70611-4 0  9996
2 56055  87.8989 275.1885 0001845  73.2973 286.8360 13.16595248128319
ONEWEB-0554             
1 56056U 23043L   25299.93458043  .00000075  00000+0  16229-3 0  9991
2 56056  87.8974 275.2566 0001599  84.3394 275.7919 13.16592246128263
ONEWEB-0555             
1 56057U 23043M   25300.20057995 -.00000001  00000+0 -35861-4 0  9991
2 56057  87.8988 275.1781 0001947  68.2701 291.8637 13.16595093128301
ONEWEB-0557             
1 56058U 23043N   25300.29081284  .00000120  00000+0  27987-3 0  9998
2 56058  87.8981 275.1744 0001057  43.7627 316.3588 13.16595942128313
ONEWEB-0558             
1 56059U 23043P   25299.99619245  .00000829  00000+0  19753-2 0  9994
2 56059  87.9165 290.5099 0002441  94.8688 265.2724 13.21825276127433
ONEWEB-0559             
1 56060U 23043Q   25300.21175503  .00000047  00000+0  81562-4 0  9999
2 56060  87.9168 290.4598 0002010  97.7810 262.3552 13.21826979127474
ONEWEB-0566             
1 56061U 23043R   25300.20517443 -.00000064  00000+0 -18701-3 0  9997
2 56061  87.9166 290.4586 0002135  96.0577 264.0800 13.21824350127454
ONEWEB-0568             
1 56062U 23043S   25300.00426484  .00000046  00000+0  86105-4 0  9992
2 56062  87.8992 275.2162 0001935  76.0915 284.0431 13.16595241128296
ONEWEB-0574             
1 56063U 23043T   25300.27427049 -.00000028  00000+0 -98234-4 0  9998
2 56063  87.9168 290.4332 0001677  87.4465 272.6861 13.21826271127509
ONEWEB-0575             
1 56064U 23043U   25299.99791949  .00000043  00000+0  78885-4 0  9993
2 56064  87.8986 275.2199 0001549  75.8318 284.2985 13.16595013128288
ONEWEB-0576             
1 56065U 23043V   25300.20692803 -.00000014  00000+0 -70720-4 0  9990
2 56065  87.8992 275.1764 0001848  79.0469 281.0869 13.16593881128308
