[{"OBJECT_NAME":"ONEWEB-0547","OBJECT_ID":"2023-043D","EPOCH":"2025-10-27T06:07:41.417472","MEAN_MOTION":13.21825345,"ECCENTRICITY":0.00020112,"INCLINATION":87.9171,"RA_OF_ASC_NODE":290.4448,"ARG_OF_PERICENTER":92.4333,"MEAN_ANOMALY":267.7031,"EPHEMERIS_TYPE":0,"CLASSIFICATION_TYPE":"U","NORAD_CAT_ID":56049,"ELEMENT_SET_NO":999,"REV_AT_EPOCH":12745,"BSTAR":8.467692e-5,"MEAN_MOTION_DOT":4.8e-7,"MEAN_MOTION_DDOT":0},{"OBJECT_NAME":"ONEWEB-0548","OBJECT_ID":"2023-043E","EPOCH":"2025-10-27T04:39:43.528320","MEAN_MOTION":13.16595005,"ECCENTRICITY":0.00014516,"INCLINATION":87.8981,"RA_OF_ASC_NODE":275.1874,"ARG_OF_PERICENTER":86.59,"MEAN_ANOMALY":273.5397,"EPHEMERIS_TYPE":0,"CLASSIFICATION_TYPE":"U","NORAD_CAT_ID":56050,"ELEMENT_SET_NO":999,"REV_AT_EPOCH":12830,"BSTAR":-0.00026315439,"MEAN_MOTION_DOT":-8.8e-7,"MEAN_MOTION_DDOT":0},{"OBJECT_NAME":"ONEWEB-0549","OBJECT_ID":"2023-043F","EPOCH":"2025-10-27T05:56:59.676288","MEAN_MOTION":13.21825439,"ECCENTRICITY":0.00021241,"INCLINATION":87.9168,"RA_OF_ASC_NODE":290.462,"ARG_OF_PERICENTER":92.5879,"MEAN_ANOMALY":267.5498,"EPHEMERIS_TYPE":0,"CLASSIFICATION_TYPE":"U","NORAD_CAT_ID":56051,"ELEMENT_SET_NO":999,"REV_AT_EPOCH":12745,"BSTAR":-0.00032316473,"MEAN_MOTION_DOT":-1.2e-6,"MEAN_MOTION_DDOT":0},{"OBJECT_NAME":"ONEWEB-0550","OBJECT_ID":"2023-043G","EPOCH":"2025-10-27T00:11:04.474752","MEAN_MOTION":13.21825333,"ECCENTRICITY":0.00017267,"INCLINATION":87.9167,"RA_OF_ASC_NODE":290.5043,"ARG_OF_PERICENTER":87.3547,"MEAN_ANOMALY":272.7785,"EPHEMERIS_TYPE":0,"CLASSIFICATION_TYPE":"U","NORAD_CAT_ID":56052,"ELEMENT_SET_NO":999,"REV_AT_EPOCH":12742,"BSTAR":0.00013710419,"MEAN_MOTION_DOT":7.0e-7,"MEAN_MOTION_DDOT":0},{"OBJECT_NAME":"ONEWEB-0551","OBJECT_ID":"2023-043H","EPOCH":"2025-10-27T00:56:55.399776","MEAN_MOTION":13.15549207,"ECCENTRICITY":0.00019882,"INCLINATION":87.8961,"RA_OF_ASC_NODE":305.763,"ARG_OF_PERICENTER":97.212,"MEAN_ANOMALY":262.9237,"EPHEMERIS_TYPE":0,"CLASSIFICATION_TYPE":"U","NORAD_CAT_ID":56053,"ELEMENT_SET_NO":999,"REV_AT_EPOCH":12574,"BSTAR":-0.00025382081,"MEAN_MOTION_DOT":-8.3e-7,"MEAN_MOTION_DDOT":0},{"OBJECT_NAME":"ONEWEB-0552","OBJECT_ID":"2023-043J","EPOCH":"2025-10-27T00:03:58.617792","MEAN_MOTION":13.2182855,"ECCENTRICITY":0.00019363,"INCLINATION":87.9166,"RA_OF_ASC_NODE":290.5144,"ARG_OF_PERICENTER":97.4009,"MEAN_ANOMALY":262.7345,"EPHEMERIS_TYPE":0,"CLASSIFICATION_TYPE":"U","NORAD_CAT_ID":56054,"ELEMENT_SET_NO":999,"REV_AT_EPOCH":12742,"BSTAR":0.0001459498,"MEAN_MOTION_DOT":7.3e-7,"MEAN_MOTION_DDOT":0},{"OBJECT_NAME":"ONEWEB-0553","OBJECT_ID":"2023-043K","EPOCH":"2025-10-27T04:12:22.161600","MEAN_MOTION":13.16595248,"ECCENTRICITY":0.00018453,"INCLINATION":87.8989,"RA_OF_ASC_NODE":275.1885,"ARG_OF_PERICENTER":73.2973,"MEAN_ANOMALY":286.836,"EPHEMERIS_TYPE":0,"CLASSIFICATION_TYPE":"U","NORAD_CAT_ID":56055,"ELEMENT_SET_NO":999,"REV_AT_EPOCH":12831,"BSTAR":7.0610874e-5,"MEAN_MOTION_DOT":4.0e-7,"MEAN_MOTION_DDOT":0},{"OBJECT_NAME":"ONEWEB-0554","OBJECT_ID":"2023-043L","EPOCH":"2025-10-26T22:25:47.749152","MEAN_MOTION":13.16592246,"ECCENTRICITY":0.0001599,"INCLINATION":87.8974,"RA_OF_ASC_NODE":275.2566,"ARG_OF_PERICENTER":84.3394,"MEAN_ANOMALY":275.7919,"EPHEMERIS_TYPE":0,"CLASSIFICATION_TYPE":"U","NORAD_CAT_ID":56056,"ELEMENT_SET_NO":999,"REV_AT_EPOCH":12826,"BSTAR":0.00016229,"MEAN_MOTION_DOT":7.5e-7,"MEAN_MOTION_DDOT":0},{"OBJECT_NAME":"ONEWEB-0555","OBJECT_ID":"2023-043M","EPOCH":"2025-10-27T04:48:50.107680","MEAN_MOTION":13.16595093,"ECCENTRICITY":0.0001947,"INCLINATION":87.8988,"RA_OF_ASC_NODE":275.1781,"ARG_OF_PERICENTER":68.2701,"MEAN_ANOMALY":291.8637,"EPHEMERIS_TYPE":0,"CLASSIFICATION_TYPE":"U","NORAD_CAT_ID":56057,"ELEMENT_SET_NO":999,"REV_AT_EPOCH":12830,"BSTAR":-3.5861261e-5,"MEAN_MOTION_DOT":-1.0e-8,"MEAN_MOTION_DDOT":0},{"OBJECT_NAME":"ONEWEB-0557","OBJECT_ID":"2023-043N","EPOCH":"2025-10-27T06:58:46.229376","MEAN_MOTION":13.16595942,"ECCENTRICITY":0.00010577,"INCLINATION":87.8981,"RA_OF_ASC_NODE":275.1744,"ARG_OF_PERICENTER":43.7627,"MEAN_ANOMALY":316.3588,"EPHEMERIS_TYPE":0,"CLASSIFICATION_TYPE":"U","NORAD_CAT_ID":56058,"ELEMENT_SET_NO":999,"REV_AT_EPOCH":12831,"BSTAR":0.00027987057,"MEAN_MOTION_DOT":1.2e-6,"MEAN_MOTION_DDOT":0},{"OBJECT_NAME":"ONEWEB-0558","OBJECT_ID":"2023-043P","EPOCH":"2025-10-26T23:54:31.027680","MEAN_MOTION":13.21825276,"ECCENTRICITY":0.0002441,"INCLINATION":87.9165,"RA_OF_ASC_NODE":290.5099,"ARG_OF_PERICENTER":94.8688,"MEAN_ANOMALY":265.2724,"EPHEMERIS_TYPE":0,"CLASSIFICATION_TYPE":"U","NORAD_CAT_ID":56059,"ELEMENT_SET_NO":999,"REV_AT_EPOCH":12743,"BSTAR":0.001975324,"MEAN_MOTION_DOT":8.29e-6,"MEAN_MOTION_DDOT":0},{"OBJECT_NAME":"ONEWEB-0559","OBJECT_ID":"2023-043Q","EPOCH":"2025-10-27T05:04:55.634592","MEAN_MOTION":13.21826979,"ECCENTRICITY":0.00020103,"INCLINATION":87.9168,"RA_OF_ASC_NODE":290.4598,"ARG_OF_PERICENTER":97.781,"MEAN_ANOMALY":262.3552,"EPHEMERIS_TYPE":0,"CLASSIFICATION_TYPE":"U","NORAD_CAT_ID":56060,"ELEMENT_SET_NO":999,"REV_AT_EPOCH":12747,"BSTAR":8.1562344e-5,"MEAN_MOTION_DOT":4.7e-7,"MEAN_MOTION_DDOT":0},{"OBJECT_NAME":"ONEWEB-0566","OBJECT_ID":"2023-043R","EPOCH":"2025-10-27T04:55:27.070752","MEAN_MOTION":13.2182435,"ECCENTRICITY":0.00021351,"INCLINATION":87.9166,"RA_OF_ASC_NODE":290.4586,"ARG_OF_PERICENTER":96.0577,"MEAN_ANOMALY":264.08,"EPHEMERIS_TYPE":0,"CLASSIFICATION_TYPE":"U","NORAD_CAT_ID":56061,"ELEMENT_SET_NO":999,"REV_AT_EPOCH":12745,"BSTAR":-0.00018701237,"MEAN_MOTION_DOT":-6.4e-7,"MEAN_MOTION_DDOT":0},{"OBJECT_NAME":"ONEWEB-0568","OBJECT_ID":"2023-043S","EPOCH":"2025-10-27T00:06:08.482176","MEAN_MOTION":13.16595241,"ECCENTRICITY":0.00019352,"INCLINATION":87.8992,"RA_OF_ASC_NODE":275.2162,"ARG_OF_PERICENTER":76.0915,"MEAN_ANOMALY":284.0431,"EPHEMERIS_TYPE":0,"CLASSIFICATION_TYPE":"U","NORAD_CAT_ID":56062,"ELEMENT_SET_NO":999,"REV_AT_EPOCH":12829,"BSTAR":8.6105413e-5,"MEAN_MOTION_DOT":4.6e-7,"MEAN_MOTION_DDOT":0},{"OBJECT_NAME":"ONEWEB-0574","OBJECT_ID":"2023-043T","EPOCH":"2025-10-27T06:34:56.970336","MEAN_MOTION":13.21826271,"ECCENTRICITY":0.00016771,"INCLINATION":87.9168,"RA_OF_ASC_NODE":290.4332,"ARG_OF_PERICENTER":87.4465,"MEAN_ANOMALY":272.6861,"EPHEMERIS_TYPE":0,"CLASSIFICATION_TYPE":"U","NORAD_CAT_ID":56063,"ELEMENT_SET_NO":999,"REV_AT_EPOCH":12750,"BSTAR":-9.8234286e-5,"MEAN_MOTION_DOT":-2.8e-7,"MEAN_MOTION_DDOT":0},{"OBJECT_NAME":"ONEWEB-0575","OBJECT_ID":"2023-043U","EPOCH":"2025-10-26T23:57:00.243936","MEAN_MOTION":13.16595013,"ECCENTRICITY":0.00015492,"INCLINATION":87.8986,"RA_OF_ASC_NODE":275.2199,"ARG_OF_PERICENTER":75.8318,"MEAN_ANOMALY":284.2985,"EPHEMERIS_TYPE":0,"CLASSIFICATION_TYPE":"U","NORAD_CAT_ID":56064,"ELEMENT_SET_NO":999,"REV_AT_EPOCH":12828,"BSTAR":7.8885498e-5,"MEAN_MOTION_DOT":4.3e-7,"MEAN_MOTION_DDOT":0},{"OBJECT_NAME":"ONEWEB-0576","OBJECT_ID":"2023-043V","EPOCH":"2025-10-27T04:57:58.581792","MEAN_MOTION":13.16593881,"ECCENTRICITY":0.00018482,"INCLINATION":87.8992,"RA_OF_ASC_NODE":275.1764,"ARG_OF_PERICENTER":79.0469,"MEAN_ANOMALY":281.0869,"EPHEMERIS_TYPE":0,"CLASSIFICATION_TYPE":"U","NORAD_CAT_ID":56065,"ELEMENT_SET_NO":999,"REV_AT_EPOCH":12830,"BSTAR":-7.0719999e-5,"MEAN_MOTION_DOT":-1.4e-7,"MEAN_MOTION_DDOT":0}]
